{
    "links": {
        "self": "http://www.neowsapp.com/rest/v1/neo/3787098?api_key=iIulBulltgU6a56xZRHN4H3l9WmuAYTsLGpBGhQ2"
    },
    "id": "3787098",
    "neo_reference_id": "3787098",
    "name": "(2017 UM1)",
    "designation": "2017 UM1",
    "nasa_jpl_url": "http://ssd.jpl.nasa.gov/sbdb.cgi?sstr=3787098",
    "absolute_magnitude_h": 25.9,
    "estimated_diameter": {
        "kilometers": {
            "estimated_diameter_min": 0.0175612318,
            "estimated_diameter_max": 0.0392681082
        },
        "meters": {
            "estimated_diameter_min": 17.561231848,
            "estimated_diameter_max": 39.2681081809
        },
        "miles": {
            "estimated_diameter_min": 0.0109120402,
            "estimated_diameter_max": 0.0244000636
        },
        "feet": {
            "estimated_diameter_min": 57.6155918963,
            "estimated_diameter_max": 128.8323800441
        }
    },
    "is_potentially_hazardous_asteroid": false,
    "close_approach_data": [
        {
            "close_approach_date": "1921-01-03",
            "close_approach_date_full": "1921-Jan-03 02:27",
            "epoch_date_close_approach": -1546119180000,
            "relative_velocity": {
                "kilometers_per_second": "18.3506213125",
                "kilometers_per_hour": "66062.2367251346",
                "miles_per_hour": "41048.5048140149"
            },
            "miss_distance": {
                "astronomical": "0.0822680411",
                "lunar": "32.0022679879",
                "kilometers": "12307123.717632457",
                "miles": "7647292.0684916266"
            },
            "orbiting_body": "Mars"
        },
        {
            "close_approach_date": "2015-04-18",
            "close_approach_date_full": "2015-Apr-18 09:02",
            "epoch_date_close_approach": 1429347720000,
            "relative_velocity": {
                "kilometers_per_second": "30.493347468",
                "kilometers_per_hour": "109776.0508847003",
                "miles_per_hour": "68210.5689511072"
            },
            "miss_distance": {
                "astronomical": "0.4309997734",
                "lunar": "167.6589118526",
                "kilometers": "64476648.071122658",
                "miles": "40063931.3222143604"
            },
            "orbiting_body": "Earth"
        },
        {
            "close_approach_date": "2017-10-21",
            "close_approach_date_full": "2017-Oct-21 17:48",
            "epoch_date_close_approach": 1508608080000,
            "relative_velocity": {
                "kilometers_per_second": "17.2869018466",
                "kilometers_per_hour": "62232.8466476675",
                "miles_per_hour": "38669.0707406021"
            },
            "miss_distance": {
                "astronomical": "0.0178662012",
                "lunar": "6.9499522668",
                "kilometers": "2672745.644511444",
                "miles": "1660767.1327041672"
            },
            "orbiting_body": "Earth"
        },
        {
            "close_approach_date": "2098-04-13",
            "close_approach_date_full": "2098-Apr-13 14:09",
            "epoch_date_close_approach": 4048236540000,
            "relative_velocity": {
                "kilometers_per_second": "27.3424098848",
                "kilometers_per_hour": "98432.6755853128",
                "miles_per_hour": "61162.2366713295"
            },
            "miss_distance": {
                "astronomical": "0.3250477618",
                "lunar": "126.4435793402",
                "kilometers": "48626452.813547366",
                "miles": "30215076.6866150108"
            },
            "orbiting_body": "Earth"
        }
    ],
    "orbital_data": {
        "orbit_id": "2",
        "orbit_determination_date": "2017-10-21 06:20:24",
        "first_observation_date": "2017-10-17",
        "last_observation_date": "2017-10-21",
        "data_arc_in_days": 4,
        "observations_used": 43,
        "orbit_uncertainty": "8",
        "minimum_orbit_intersection": ".0112317",
        "jupiter_tisserand_invariant": "3.572",
        "epoch_osculation": "2458044.5",
        "eccentricity": ".6534681045558459",
        "semi_major_axis": "1.968173621269557",
        "inclination": "4.086123529587585",
        "ascending_node_longitude": "198.2740471480975",
        "orbital_period": "1008.540951013389",
        "perihelion_distance": ".6820349355417242",
        "perihelion_argument": "267.4800804494973",
        "aphelion_distance": "3.25431230699739",
        "perihelion_time": "2458094.067727278718",
        "mean_anomaly": "342.3067354851498",
        "mean_motion": ".3569512964627458",
        "equinox": "J2000",
        "orbit_class": {
            "orbit_class_type": "APO",
            "orbit_class_description": "Near-Earth asteroid orbits which cross the Earth’s orbit similar to that of 1862 Apollo",
            "orbit_class_range": "a (semi-major axis) > 1.0 AU; q (perihelion) < 1.017 AU"
        }
    },
    "is_sentry_object": false
}